H1 CPF 01  gfz 2022 01 25 13  5252 terrasarx 
H2 0702601  6201 31698    2022 01 25 12 59 42 2022 01 30 00 00 42   120 1 1  0 0 0
H9
10 0 59604  63342.000000  0   -5889453.123   -192435.169  -3576783.717
10 0 59604  63462.000000  0   -5376888.235      9330.297  -4314224.976
10 0 59604  63582.000000  0   -4767345.296    201115.396  -4976081.501
10 0 59604  63702.000000  0   -4071736.361    377985.657  -5550852.067
10 0 59604  63822.000000  0   -3302522.070    535477.292  -6028577.961
10 0 59604  63942.000000  0   -2473480.087    669697.432  -6401003.684
10 0 59604  64062.000000  0   -1599455.496    777409.840  -6661707.650
10 0 59604  64182.000000  0    -696094.877    856104.789  -6806202.634
10 0 59604  64302.000000  0     220429.672    904052.008  -6832003.124
10 0 59604  64422.000000  0    1133701.811    920335.429  -6738663.665
10 0 59604  64542.000000  0    2027348.511    904869.943  -6527788.389
10 0 59604  64662.000000  0    2885327.974    858400.083  -6203006.284
10 0 59604  64782.000000  0    3692213.212    782480.424  -5769914.705
10 0 59604  64902.000000  0    4433466.498    679437.248  -5235992.143
10 0 59604  65022.000000  0    5095702.782    552312.688  -4610480.981
10 0 59604  65142.000000  0    5666937.619    404792.369  -3904238.514
10 0 59604  65262.000000  0    6136812.636    241116.823  -3129557.618
10 0 59604  65382.000000  0    6496794.531     65979.083  -2299960.382
10 0 59604  65502.000000  0    6740343.870   -115590.052  -1429965.579
10 0 59604  65622.000000  0    6863046.011   -298346.157   -534833.111
10 0 59604  65742.000000  0    6862701.141   -476961.380    369707.436
10 0 59604  65862.000000  0    6739371.717   -646158.507   1267739.898
10 0 59604  65982.000000  0    6495384.104   -800844.805   2143450.055
10 0 59604  66102.000000  0    6135284.633   -936242.137   2981414.106
10 0 59604  66222.000000  0    5665748.883  -1048009.860   3766878.114
10 0 59604  66342.000000  0    5095451.081  -1132357.379   4486022.732
10 0 59604  66462.000000  0    4434894.213  -1186144.663   5126209.638
10 0 59604  66582.000000  0    3696206.191  -1206965.952   5676203.022
10 0 59604  66702.000000  0    2892907.977  -1193216.361   6126363.946
10 0 59604  66822.000000  0    2039658.376  -1144140.715   6468813.853
10 0 59604  66942.000000  0    1151981.885  -1059863.241   6697567.072
10 0 59604  67062.000000  0     245982.195   -941397.120   6808630.038
10 0 59604  67182.000000  0    -661951.135   -790633.755   6800065.385
10 0 59604  67302.000000  0   -1555438.012   -610312.791   6672022.605
10 0 59604  67422.000000  0   -2418401.734   -403972.489   6426735.402
10 0 59604  67542.000000  0   -3235357.002   -175881.449   6068485.873
10 0 59604  67662.000000  0   -3991689.162     69047.309   5603535.566
10 0 59604  67782.000000  0   -4673920.086    325358.477   5040022.344
10 0 59604  67902.000000  0   -5269954.906    587170.859   4387823.689
10 0 59604  68022.000000  0   -5769305.082    848306.297   3658387.904
10 0 59604  68142.000000  0   -6163281.722   1102428.461   2864535.737
10 0 59604  68262.000000  0   -6445156.645   1343188.489   2020235.527
10 0 59604  68382.000000  0   -6610286.193   1564373.549   1140354.697
10 0 59604  68502.000000  0   -6656195.058   1760055.437    240391.957
10 0 59604  68622.000000  0   -6582615.398   1924734.959   -663804.560
10 0 59604  68742.000000  0   -6391480.836   2053477.636  -1556325.349
10 0 59604  68862.000000  0   -6086876.938   2142038.269  -2421487.453
10 0 59604  68982.000000  0   -5674948.767   2186971.467  -3244117.820
10 0 59604  69102.000000  0   -5163766.801   2185724.222  -4009824.193
10 0 59604  69222.000000  0   -4563157.055   2136708.425  -4705246.859
10 0 59604  69342.000000  0   -3884500.686   2039352.638  -5318287.520
10 0 59604  69462.000000  0   -3140508.791   1894132.496  -5838311.432
10 0 59604  69582.000000  0   -2344978.544   1702579.457  -6256321.908
10 0 59604  69702.000000  0   -1512533.324   1467267.715  -6565105.603
10 0 59604  69822.000000  0    -658353.406   1191779.692  -6759344.473
10 0 59604  69942.000000  0     202096.639    880651.208  -6835697.079
10 0 59604  70062.000000  0    1053340.407    539298.199  -6792849.878
10 0 59604  70182.000000  0    1880162.174    173924.354  -6631539.596
10 0 59604  70302.000000  0    2667873.139   -208588.984  -6354540.978
10 0 59604  70422.000000  0    3402567.678   -600808.270  -5966624.738
10 0 59604  70542.000000  0    4071366.399   -994887.652  -5474482.698
10 0 59604  70662.000000  0    4662642.204  -1382720.848  -4886624.009
10 0 59604  70782.000000  0    5166227.971  -1756104.301  -4213239.846
10 0 59604  70902.000000  0    5573599.370  -2106906.985  -3466037.051
10 0 59604  71022.000000  0    5878029.609  -2427243.880  -2658042.751
10 0 59604  71142.000000  0    6074711.698  -2709649.577  -1803381.671
10 0 59604  71262.000000  0    6160844.227  -2947247.467   -917030.178
10 0 59604  71382.000000  0    6135679.002  -3133910.526    -14551.649
10 0 59604  71502.000000  0    6000527.873  -3264409.513    888182.323
10 0 59604  71622.000000  0    5758729.204  -3334544.814   1775279.060
10 0 59604  71742.000000  0    5415571.223  -3341257.264   2631114.970
10 0 59604  71862.000000  0    4978175.958  -3282715.642   3440618.469
10 0 59604  71982.000000  0    4455347.686  -3158377.792   4189542.044
10 0 59604  72102.000000  0    3857390.766  -2969025.347   4864716.308
10 0 59604  72222.000000  0    3195899.123  -2716771.802   5454284.081
10 0 59604  72342.000000  0    2483523.316  -2405041.500   5947906.356
10 0 59604  72462.000000  0    1733722.733  -2038522.355   6336939.135
10 0 59604  72582.000000  0     960506.828  -1623093.570   6614579.092
10 0 59604  72702.000000  0     178170.552  -1165729.175   6775976.424
10 0 59604  72822.000000  0    -598970.547   -674379.219   6818313.912
10 0 59604  72942.000000  0   -1356841.286   -157831.108   6740852.247
10 0 59604  73062.000000  0   -2081860.549    374447.169   6544942.148
10 0 59604  73182.000000  0   -2761183.818    912479.919   6234002.524
10 0 59604  73302.000000  0   -3382931.248   1445969.628   5813464.914
10 0 59604  73422.000000  0   -3936398.037   1964493.148   5290684.891
10 0 59604  73542.000000  0   -4412244.037   2457705.634   4674820.253
10 0 59604  73662.000000  0   -4802658.293   2915548.352   3976675.558
10 0 59604  73782.000000  0   -5101493.637   3328454.900   3208515.392
10 0 59604  73902.000000  0   -5304369.821   3687552.559   2383850.683
10 0 59604  74022.000000  0   -5408742.570   3984854.466   1517199.972
10 0 59604  74142.000000  0   -5413936.377   4213437.032    623828.541
10 0 59604  74262.000000  0   -5321138.056   4367597.011   -280528.188
10 0 59604  74382.000000  0   -5133353.348   4442985.282  -1179949.746
10 0 59604  74502.000000  0   -4855326.809   4436714.301  -2058620.671
10 0 59604  74622.000000  0   -4493425.482   4347434.395  -2901117.808
10 0 59604  74742.000000  0   -4055491.002   4175377.674  -3692686.538
10 0 59604  74862.000000  0   -3550664.560   3922369.815  -4419500.683
10 0 59604  74982.000000  0   -2989190.140   3591810.198  -5068900.835
10 0 59604  75102.000000  0   -2382202.543   3188621.731  -5629607.434
10 0 59604  75222.000000  0   -1741504.176   2719172.848  -6091908.506
10 0 59604  75342.000000  0   -1079333.577   2191171.287  -6447817.685
10 0 59604  75462.000000  0    -408132.637   1613533.769  -6691199.936
10 0 59604  75582.000000  0     259683.569    996234.692  -6817866.677
10 0 59604  75702.000000  0     911950.446    350135.882  -6825640.308
10 0 59604  75822.000000  0    1536971.122   -313200.823  -6714388.774
10 0 59604  75942.000000  0    2123721.321   -981716.084  -6486025.986
10 0 59604  76062.000000  0    2662039.310  -1643066.433  -6144482.618
10 0 59604  76182.000000  0    3142799.885  -2284846.408  -5695645.550
10 0 59604  76302.000000  0    3558069.859  -2894817.392  -5147268.363
10 0 59604  76422.000000  0    3901243.205  -3461141.514  -4508848.060
10 0 59604  76542.000000  0    4167149.581  -3972611.826  -3791469.757
10 0 59604  76662.000000  0    4352137.244  -4418876.222  -3007624.517
10 0 59604  76782.000000  0    4454128.687  -4790651.599  -2170998.901
10 0 59604  76902.000000  0    4472645.818  -5079922.433  -1296238.980
10 0 59604  77022.000000  0    4408802.335  -5280118.474   -398692.362
10 0 59604  77142.000000  0    4265263.848  -5386265.212    505866.034
10 0 59604  77262.000000  0    4046176.471  -5395104.461   1401518.342
10 0 59604  77382.000000  0    3757064.898  -5305180.273   2272493.642
10 0 59604  77502.000000  0    3404701.676  -5116887.782   3103453.930
10 0 59604  77622.000000  0    2996952.913  -4832485.720   3879771.409
10 0 59604  77742.000000  0    2542603.689  -4456070.110   4587791.108
10 0 59604  77862.000000  0    2051168.220  -3993511.388   5215073.563
10 0 59604  77982.000000  0    1532689.023  -3452356.657   5750612.790
10 0 59604  78102.000000  0     997529.510  -2841699.027   6185026.671
10 0 59604  78222.000000  0     456165.088  -2172018.304   6510715.188
10 0 59604  78342.000000  0     -81022.396  -1454996.704   6721986.360
10 0 59604  78462.000000  0    -603942.691   -703313.034   6815150.324
10 0 59604  78582.000000  0   -1102985.461     69583.127   6788580.279
10 0 59604  78702.000000  0   -1569196.217    849711.987   6642738.837
10 0 59604  78822.000000  0   -1994436.484   1622815.657   6380170.249
10 0 59604  78942.000000  0   -2371526.315   2374617.748   6005458.868
10 0 59604  79062.000000  0   -2694366.476   3091087.157   5525154.140
10 0 59604  79182.000000  0   -2958038.959   3758701.697   4947662.672
10 0 59604  79302.000000  0   -3158884.787   4364707.383   4283107.575
10 0 59604  79422.000000  0   -3294555.965   4897368.167   3543155.723
10 0 59604  79542.000000  0   -3364040.768   5346200.783   2740815.077
10 0 59604  79662.000000  0   -3367661.134   5702188.258   1890204.957
10 0 59604  79782.000000  0   -3307042.666   5957966.408   1006304.135
99
